STARLINK-36724          
1 67914U 26036L   26061.91668981 -.01535535  00000+0 -66548-2 0  9996
2 67914  42.9945 291.2299 0001587 271.3912 257.3372 15.86546976  2550
STARLINK-36723          
1 67915U 26036M   26061.91668981 -.01545042  00000+0 -67626-2 0  9999
2 67915  42.9948 291.2389 0001491 275.0471 250.3018 15.86365466  2552
STARLINK-36721          
1 67916U 26036N   26061.91668981 -.01551702  00000+0 -66863-2 0  9992
2 67916  42.9949 291.2213 0001529 278.6578 253.7298 15.86692239  2568
STARLINK-36722          
1 67917U 26036P   26061.91668981 -.01721777  00000+0 -74367-2 0  9992
2 67917  42.9948 291.2125 0002041 270.4340 265.4035 15.86946770  2568
STARLINK-36341          
1 67918U 26036Q   26061.91668981 -.01554079  00000+0 -65314-2 0  9994
2 67918  42.9947 291.1952 0001658 270.5325 272.1175 15.87195190  2565
STARLINK-36663          
1 67919U 26036R   26061.91668981 -.01551657  00000+0 -65742-2 0  9999
2 67919  42.9950 291.2040 0001625 272.7241 266.5156 15.87029447  2561
STARLINK-36375          
1 67920U 26036S   26061.91668981 -.01560555  00000+0 -65131-2 0  9990
2 67920  42.9949 291.1866 0001630 272.1371 274.0021 15.87346154  2562
STARLINK-36405          
1 67921U 26036T   26061.91668981 -.01551218  00000+0 -64146-2 0  9992
2 67921  42.9949 291.1784 0001597 273.0946 276.3142 15.87514214  2565
STARLINK-36383          
1 67922U 26036U   26061.91668981 -.01562846  00000+0 -64205-2 0  9998
2 67922  42.9950 291.1698 0001612 272.8911 279.9987 15.87664820  2564
STARLINK-36406          
1 67923U 26036V   26061.91668981 -.01562004  00000+0 -63646-2 0  9993
2 67923  42.9950 291.1615 0001595 272.6891 283.4986 15.87826648  2566
STARLINK-36714          
1 67924U 26036W   26061.91668981 -.01564588  00000+0 -63243-2 0  9996
2 67924  42.9950 291.1532 0001579 274.4591 284.9952 15.87990183  2569
STARLINK-36726          
1 67925U 26036X   26061.91668981 -.01554569  00000+0 -62238-2 0  9998
2 67925  42.9950 291.1453 0001607 271.4720 291.0925 15.88162175  2567
STARLINK-36758          
1 67926U 26036Y   26061.91668981 -.01553528  00000+0 -61723-2 0  9991
2 67926  42.9948 291.1369 0001590 271.6335 294.2242 15.88311644  2560
STARLINK-36728          
1 67927U 26036Z   26061.91668981 -.01572436  00000+0 -61673-2 0  9995
2 67927  42.9949 291.1195 0001565 269.7898 302.8410 15.88599068  2564
STARLINK-36771          
1 67928U 26036AA  26061.91668981 -.01581108  00000+0 -62533-2 0  9998
2 67928  42.9947 291.1276 0001592 272.0497 297.3703 15.88449580  2561
STARLINK-36809          
1 67929U 26036AB  26061.91668981 -.01587408  00000+0 -61869-2 0  9999
2 67929  42.9947 291.1112 0001575 269.4251 306.5307 15.88749070  2560
