[{"OBJECT_NAME":"STARLINK-36724","OBJECT_ID":"2026-036L","EPOCH":"2026-03-02T22:00:01.999584","MEAN_MOTION":15.86546976,"ECCENTRICITY":0.00015876,"INCLINATION":42.9945,"RA_OF_ASC_NODE":291.2299,"ARG_OF_PERICENTER":271.3912,"MEAN_ANOMALY":257.3372,"EPHEMERIS_TYPE":0,"CLASSIFICATION_TYPE":"U","NORAD_CAT_ID":67914,"ELEMENT_SET_NO":999,"REV_AT_EPOCH":255,"BSTAR":-0.0066547821,"MEAN_MOTION_DOT":-0.01535535,"MEAN_MOTION_DDOT":0},{"OBJECT_NAME":"STARLINK-36723","OBJECT_ID":"2026-036M","EPOCH":"2026-03-02T22:00:01.999584","MEAN_MOTION":15.86365466,"ECCENTRICITY":0.00014915,"INCLINATION":42.9948,"RA_OF_ASC_NODE":291.2389,"ARG_OF_PERICENTER":275.0471,"MEAN_ANOMALY":250.3018,"EPHEMERIS_TYPE":0,"CLASSIFICATION_TYPE":"U","NORAD_CAT_ID":67915,"ELEMENT_SET_NO":999,"REV_AT_EPOCH":255,"BSTAR":-0.006762648,"MEAN_MOTION_DOT":-0.01545042,"MEAN_MOTION_DDOT":0},{"OBJECT_NAME":"STARLINK-36721","OBJECT_ID":"2026-036N","EPOCH":"2026-03-02T22:00:01.999584","MEAN_MOTION":15.86692239,"ECCENTRICITY":0.00015298,"INCLINATION":42.9949,"RA_OF_ASC_NODE":291.2213,"ARG_OF_PERICENTER":278.6578,"MEAN_ANOMALY":253.7298,"EPHEMERIS_TYPE":0,"CLASSIFICATION_TYPE":"U","NORAD_CAT_ID":67916,"ELEMENT_SET_NO":999,"REV_AT_EPOCH":256,"BSTAR":-0.0066862696,"MEAN_MOTION_DOT":-0.01551702,"MEAN_MOTION_DDOT":0},{"OBJECT_NAME":"STARLINK-36722","OBJECT_ID":"2026-036P","EPOCH":"2026-03-02T22:00:01.999584","MEAN_MOTION":15.8694677,"ECCENTRICITY":0.00020414,"INCLINATION":42.9948,"RA_OF_ASC_NODE":291.2125,"ARG_OF_PERICENTER":270.434,"MEAN_ANOMALY":265.4035,"EPHEMERIS_TYPE":0,"CLASSIFICATION_TYPE":"U","NORAD_CAT_ID":67917,"ELEMENT_SET_NO":999,"REV_AT_EPOCH":256,"BSTAR":-0.0074367236,"MEAN_MOTION_DOT":-0.01721777,"MEAN_MOTION_DDOT":0},{"OBJECT_NAME":"STARLINK-36341","OBJECT_ID":"2026-036Q","EPOCH":"2026-03-02T22:00:01.999584","MEAN_MOTION":15.8719519,"ECCENTRICITY":0.00016581,"INCLINATION":42.9947,"RA_OF_ASC_NODE":291.1952,"ARG_OF_PERICENTER":270.5325,"MEAN_ANOMALY":272.1175,"EPHEMERIS_TYPE":0,"CLASSIFICATION_TYPE":"U","NORAD_CAT_ID":67918,"ELEMENT_SET_NO":999,"REV_AT_EPOCH":256,"BSTAR":-0.006531432,"MEAN_MOTION_DOT":-0.01554079,"MEAN_MOTION_DDOT":0},{"OBJECT_NAME":"STARLINK-36663","OBJECT_ID":"2026-036R","EPOCH":"2026-03-02T22:00:01.999584","MEAN_MOTION":15.87029447,"ECCENTRICITY":0.00016251,"INCLINATION":42.995,"RA_OF_ASC_NODE":291.204,"ARG_OF_PERICENTER":272.7241,"MEAN_ANOMALY":266.5156,"EPHEMERIS_TYPE":0,"CLASSIFICATION_TYPE":"U","NORAD_CAT_ID":67919,"ELEMENT_SET_NO":999,"REV_AT_EPOCH":256,"BSTAR":-0.0065742266,"MEAN_MOTION_DOT":-0.01551657,"MEAN_MOTION_DDOT":0},{"OBJECT_NAME":"STARLINK-36375","OBJECT_ID":"2026-036S","EPOCH":"2026-03-02T22:00:01.999584","MEAN_MOTION":15.87346154,"ECCENTRICITY":0.00016304,"INCLINATION":42.9949,"RA_OF_ASC_NODE":291.1866,"ARG_OF_PERICENTER":272.1371,"MEAN_ANOMALY":274.0021,"EPHEMERIS_TYPE":0,"CLASSIFICATION_TYPE":"U","NORAD_CAT_ID":67920,"ELEMENT_SET_NO":999,"REV_AT_EPOCH":256,"BSTAR":-0.0065131041,"MEAN_MOTION_DOT":-0.01560555,"MEAN_MOTION_DDOT":0},{"OBJECT_NAME":"STARLINK-36405","OBJECT_ID":"2026-036T","EPOCH":"2026-03-02T22:00:01.999584","MEAN_MOTION":15.87514214,"ECCENTRICITY":0.00015978,"INCLINATION":42.9949,"RA_OF_ASC_NODE":291.1784,"ARG_OF_PERICENTER":273.0946,"MEAN_ANOMALY":276.3142,"EPHEMERIS_TYPE":0,"CLASSIFICATION_TYPE":"U","NORAD_CAT_ID":67921,"ELEMENT_SET_NO":999,"REV_AT_EPOCH":256,"BSTAR":-0.0064146274,"MEAN_MOTION_DOT":-0.01551218,"MEAN_MOTION_DDOT":0},{"OBJECT_NAME":"STARLINK-36383","OBJECT_ID":"2026-036U","EPOCH":"2026-03-02T22:00:01.999584","MEAN_MOTION":15.8766482,"ECCENTRICITY":0.00016127,"INCLINATION":42.995,"RA_OF_ASC_NODE":291.1698,"ARG_OF_PERICENTER":272.8911,"MEAN_ANOMALY":279.9987,"EPHEMERIS_TYPE":0,"CLASSIFICATION_TYPE":"U","NORAD_CAT_ID":67922,"ELEMENT_SET_NO":999,"REV_AT_EPOCH":256,"BSTAR":-0.006420528,"MEAN_MOTION_DOT":-0.01562846,"MEAN_MOTION_DDOT":0},{"OBJECT_NAME":"STARLINK-36406","OBJECT_ID":"2026-036V","EPOCH":"2026-03-02T22:00:01.999584","MEAN_MOTION":15.87826648,"ECCENTRICITY":0.0001595,"INCLINATION":42.995,"RA_OF_ASC_NODE":291.1615,"ARG_OF_PERICENTER":272.6891,"MEAN_ANOMALY":283.4986,"EPHEMERIS_TYPE":0,"CLASSIFICATION_TYPE":"U","NORAD_CAT_ID":67923,"ELEMENT_SET_NO":999,"REV_AT_EPOCH":256,"BSTAR":-0.0063646078,"MEAN_MOTION_DOT":-0.01562004,"MEAN_MOTION_DDOT":0},{"OBJECT_NAME":"STARLINK-36714","OBJECT_ID":"2026-036W","EPOCH":"2026-03-02T22:00:01.999584","MEAN_MOTION":15.87990183,"ECCENTRICITY":0.00015798,"INCLINATION":42.995,"RA_OF_ASC_NODE":291.1532,"ARG_OF_PERICENTER":274.4591,"MEAN_ANOMALY":284.9952,"EPHEMERIS_TYPE":0,"CLASSIFICATION_TYPE":"U","NORAD_CAT_ID":67924,"ELEMENT_SET_NO":999,"REV_AT_EPOCH":256,"BSTAR":-0.0063242842,"MEAN_MOTION_DOT":-0.01564588,"MEAN_MOTION_DDOT":0},{"OBJECT_NAME":"STARLINK-36726","OBJECT_ID":"2026-036X","EPOCH":"2026-03-02T22:00:01.999584","MEAN_MOTION":15.88162175,"ECCENTRICITY":0.0001607,"INCLINATION":42.995,"RA_OF_ASC_NODE":291.1453,"ARG_OF_PERICENTER":271.472,"MEAN_ANOMALY":291.0925,"EPHEMERIS_TYPE":0,"CLASSIFICATION_TYPE":"U","NORAD_CAT_ID":67925,"ELEMENT_SET_NO":999,"REV_AT_EPOCH":256,"BSTAR":-0.0062238255,"MEAN_MOTION_DOT":-0.01554569,"MEAN_MOTION_DDOT":0},{"OBJECT_NAME":"STARLINK-36758","OBJECT_ID":"2026-036Y","EPOCH":"2026-03-02T22:00:01.999584","MEAN_MOTION":15.88311644,"ECCENTRICITY":0.00015901,"INCLINATION":42.9948,"RA_OF_ASC_NODE":291.1369,"ARG_OF_PERICENTER":271.6335,"MEAN_ANOMALY":294.2242,"EPHEMERIS_TYPE":0,"CLASSIFICATION_TYPE":"U","NORAD_CAT_ID":67926,"ELEMENT_SET_NO":999,"REV_AT_EPOCH":256,"BSTAR":-0.0061722929,"MEAN_MOTION_DOT":-0.01553528,"MEAN_MOTION_DDOT":0},{"OBJECT_NAME":"STARLINK-36728","OBJECT_ID":"2026-036Z","EPOCH":"2026-03-02T22:00:01.999584","MEAN_MOTION":15.88599068,"ECCENTRICITY":0.00015651,"INCLINATION":42.9949,"RA_OF_ASC_NODE":291.1195,"ARG_OF_PERICENTER":269.7898,"MEAN_ANOMALY":302.841,"EPHEMERIS_TYPE":0,"CLASSIFICATION_TYPE":"U","NORAD_CAT_ID":67927,"ELEMENT_SET_NO":999,"REV_AT_EPOCH":256,"BSTAR":-0.0061673339,"MEAN_MOTION_DOT":-0.01572436,"MEAN_MOTION_DDOT":0},{"OBJECT_NAME":"STARLINK-36771","OBJECT_ID":"2026-036AA","EPOCH":"2026-03-02T22:00:01.999584","MEAN_MOTION":15.8844958,"ECCENTRICITY":0.00015924,"INCLINATION":42.9947,"RA_OF_ASC_NODE":291.1276,"ARG_OF_PERICENTER":272.0497,"MEAN_ANOMALY":297.3703,"EPHEMERIS_TYPE":0,"CLASSIFICATION_TYPE":"U","NORAD_CAT_ID":67928,"ELEMENT_SET_NO":999,"REV_AT_EPOCH":256,"BSTAR":-0.0062532691,"MEAN_MOTION_DOT":-0.01581108,"MEAN_MOTION_DDOT":0},{"OBJECT_NAME":"STARLINK-36809","OBJECT_ID":"2026-036AB","EPOCH":"2026-03-02T22:00:01.999584","MEAN_MOTION":15.8874907,"ECCENTRICITY":0.00015756,"INCLINATION":42.9947,"RA_OF_ASC_NODE":291.1112,"ARG_OF_PERICENTER":269.4251,"MEAN_ANOMALY":306.5307,"EPHEMERIS_TYPE":0,"CLASSIFICATION_TYPE":"U","NORAD_CAT_ID":67929,"ELEMENT_SET_NO":999,"REV_AT_EPOCH":256,"BSTAR":-0.0061868621,"MEAN_MOTION_DOT":-0.01587408,"MEAN_MOTION_DDOT":0}]
